{"type": "FeatureCollection", "features": [ {"type": "Feature", "properties": {"norad_id": 44476, "name": "INTELSAT 39 (IS-39)", "group": "intelsat", "lat": 0.024657826935345052, "lon": 117.58101081831309, "alt_km": 35784.04830490012, "timestamp": "2025-12-06T22:38:42.402862+00:00", "meta": {"OBJECT_NAME": "INTELSAT 39 (IS-39)", "OBJECT_ID": "2019-049B", "EPOCH": "2025-12-06T12:14:50.229312", "MEAN_MOTION": 1.00270371, "ECCENTRICITY": 7.556e-05, "INCLINATION": 0.0176, "RA_OF_ASC_NODE": 331.1774, "ARG_OF_PERICENTER": 187.2045, "MEAN_ANOMALY": 162.8225, "EPHEMERIS_TYPE": 0, "CLASSIFICATION_TYPE": "U", "NORAD_CAT_ID": 44476, "ELEMENT_SET_NO": 999, "REV_AT_EPOCH": 2319, "BSTAR": 0, "MEAN_MOTION_DOT": 4.1e-07, "MEAN_MOTION_DDOT": 0}, "tle": {"line1": "1 44476U 19049B   25340.51030358  .00000041  00000+0  00000+0 0  9990", "line2": "2 44476   0.0176 331.1774 0000755 187.2045 162.8225  1.00270371 23193"}}, "geometry": {"type": "Point", "coordinates": [117.58101081831309, 0.024657826935345052]}}, {"type": "Feature", "properties": {"norad_id": 46114, "name": "GALAXY 30 (G-30)", "group": "intelsat", "lat": -0.031311985833937336, "lon": -69.34387355962774, "alt_km": 35778.11161376499, "timestamp": "2025-12-06T22:38:42.402873+00:00", "meta": {"OBJECT_NAME": "GALAXY 30 (G-30)", "OBJECT_ID": "2020-056C", "EPOCH": "2025-12-06T13:09:03.573792", "MEAN_MOTION": 1.00270345, "ECCENTRICITY": 0.00024789, "INCLINATION": 0.0154, "RA_OF_ASC_NODE": 344.878, "ARG_OF_PERICENTER": 268.4209, "MEAN_ANOMALY": 254.5503, "EPHEMERIS_TYPE": 0, "CLASSIFICATION_TYPE": "U", "NORAD_CAT_ID": 46114, "ELEMENT_SET_NO": 999, "REV_AT_EPOCH": 1936, "BSTAR": 0, "MEAN_MOTION_DOT": 4.4e-07, "MEAN_MOTION_DDOT": 0}, "tle": {"line1": "1 46114U 20056C   25340.54795803  .00000044  00000+0  00000+0 0  9990", "line2": "2 46114   0.0154 344.8780 0002478 268.4209 254.5503  1.00270345 19369"}}, "geometry": {"type": "Point", "coordinates": [-69.34387355962774, -0.031311985833937336]}}, {"type": "Feature", "properties": {"norad_id": 54026, "name": "GALAXY 33 (G-33)", "group": "intelsat", "lat": -0.03072635031636169, "lon": -77.34687046497531, "alt_km": 35778.41833424222, "timestamp": "2025-12-06T22:38:42.402886+00:00", "meta": {"OBJECT_NAME": "GALAXY 33 (G-33)", "OBJECT_ID": "2022-128A", "EPOCH": "2025-12-06T13:05:21.467904", "MEAN_MOTION": 1.00270117, "ECCENTRICITY": 0.00022437, "INCLINATION": 0.0181, "RA_OF_ASC_NODE": 38.1266, "ARG_OF_PERICENTER": 212.9098, "MEAN_ANOMALY": 247.8858, "EPHEMERIS_TYPE": 0, "CLASSIFICATION_TYPE": "U", "NORAD_CAT_ID": 54026, "ELEMENT_SET_NO": 999, "REV_AT_EPOCH": 1181, "BSTAR": 0, "MEAN_MOTION_DOT": 8.6e-07, "MEAN_MOTION_DDOT": 0}, "tle": {"line1": "1 54026U 22128A   25340.54538736  .00000086  00000+0  00000+0 0  9999", "line2": "2 54026   0.0181  38.1266 0002243 212.9098 247.8858  1.00270117 11819"}}, "geometry": {"type": "Point", "coordinates": [-77.34687046497531, -0.03072635031636169]}}, {"type": "Feature", "properties": {"norad_id": 54027, "name": "GALAXY 34 (G-34)", "group": "intelsat", "lat": -0.03731993901927712, "lon": -73.28998114787595, "alt_km": 35782.54107794187, "timestamp": "2025-12-06T22:38:42.402897+00:00", "meta": {"OBJECT_NAME": "GALAXY 34 (G-34)", "OBJECT_ID": "2022-128B", "EPOCH": "2025-12-06T13:07:17.966208", "MEAN_MOTION": 1.00269823, "ECCENTRICITY": 0.00012496, "INCLINATION": 0.0207, "RA_OF_ASC_NODE": 344.4341, "ARG_OF_PERICENTER": 262.3688, "MEAN_ANOMALY": 256.6678, "EPHEMERIS_TYPE": 0, "CLASSIFICATION_TYPE": "U", "NORAD_CAT_ID": 54027, "ELEMENT_SET_NO": 999, "REV_AT_EPOCH": 1198, "BSTAR": 0, "MEAN_MOTION_DOT": 0, "MEAN_MOTION_DDOT": 0}, "tle": {"line1": "1 54027U 22128B   25340.54673572  .00000000  00000+0  00000+0 0  9994", "line2": "2 54027   0.0207 344.4341 0001249 262.3688 256.6678  1.00269823 11983"}}, "geometry": {"type": "Point", "coordinates": [-73.28998114787595, -0.03731993901927712]}}, {"type": "Feature", "properties": {"norad_id": 54243, "name": "GALAXY 31 (G-31)", "group": "intelsat", "lat": -0.015028442538978068, "lon": -65.34640240680794, "alt_km": 35778.949969114474, "timestamp": "2025-12-06T22:38:42.402909+00:00", "meta": {"OBJECT_NAME": "GALAXY 31 (G-31)", "OBJECT_ID": "2022-153A", "EPOCH": "2025-12-06T11:22:40.224288", "MEAN_MOTION": 1.00270841, "ECCENTRICITY": 0.00019716, "INCLINATION": 0.0114, "RA_OF_ASC_NODE": 58.4305, "ARG_OF_PERICENTER": 208.3356, "MEAN_ANOMALY": 218.4165, "EPHEMERIS_TYPE": 0, "CLASSIFICATION_TYPE": "U", "NORAD_CAT_ID": 54243, "ELEMENT_SET_NO": 999, "REV_AT_EPOCH": 520, "BSTAR": 0, "MEAN_MOTION_DOT": 2e-07, "MEAN_MOTION_DDOT": 0}, "tle": {"line1": "1 54243U 22153A   25340.47407667  .00000020  00000+0  00000+0 0  9996", "line2": "2 54243   0.0114  58.4305 0001971 208.3356 218.4165  1.00270841  5203"}}, "geometry": {"type": "Point", "coordinates": [-65.34640240680794, -0.015028442538978068]}}, {"type": "Feature", "properties": {"norad_id": 54244, "name": "GALAXY 32 (G-32)", "group": "intelsat", "lat": -0.017177963962276832, "lon": -35.34677613656144, "alt_km": 35775.84072799828, "timestamp": "2025-12-06T22:38:42.402938+00:00", "meta": {"OBJECT_NAME": "GALAXY 32 (G-32)", "OBJECT_ID": "2022-153B", "EPOCH": "2025-12-06T11:00:49.366944", "MEAN_MOTION": 1.00270596, "ECCENTRICITY": 0.00026741, "INCLINATION": 0.0115, "RA_OF_ASC_NODE": 13.2442, "ARG_OF_PERICENTER": 291.9174, "MEAN_ANOMALY": 204.5447, "EPHEMERIS_TYPE": 0, "CLASSIFICATION_TYPE": "U", "NORAD_CAT_ID": 54244, "ELEMENT_SET_NO": 999, "REV_AT_EPOCH": 1121, "BSTAR": 0, "MEAN_MOTION_DOT": -1.67e-06, "MEAN_MOTION_DDOT": 0}, "tle": {"line1": "1 54244U 22153B   25340.45890471 -.00000167  00000+0  00000+0 0  9997", "line2": "2 54244   0.0115  13.2442 0002674 291.9174 204.5447  1.00270596 11217"}}, "geometry": {"type": "Point", "coordinates": [-35.34677613656144, -0.017177963962276832]}}, {"type": "Feature", "properties": {"norad_id": 54741, "name": "GALAXY 35 (G-35)", "group": "intelsat", "lat": -0.020588160352568576, "lon": -37.419692438555096, "alt_km": 35780.34519930722, "timestamp": "2025-12-06T22:38:42.402951+00:00", "meta": {"OBJECT_NAME": "GALAXY 35 (G-35)", "OBJECT_ID": "2022-170A", "EPOCH": "2025-12-06T10:59:59.043264", "MEAN_MOTION": 1.00271248, "ECCENTRICITY": 0.00027301, "INCLINATION": 0.0156, "RA_OF_ASC_NODE": 37.9827, "ARG_OF_PERICENTER": 225.3821, "MEAN_ANOMALY": 244.0405, "EPHEMERIS_TYPE": 0, "CLASSIFICATION_TYPE": "U", "NORAD_CAT_ID": 54741, "ELEMENT_SET_NO": 999, "REV_AT_EPOCH": 1096, "BSTAR": 0, "MEAN_MOTION_DOT": -1.55e-06, "MEAN_MOTION_DDOT": 0}, "tle": {"line1": "1 54741U 22170A   25340.45832226 -.00000155  00000+0  00000+0 0  9999", "line2": "2 54741   0.0156  37.9827 0002730 225.3821 244.0405  1.00271248 10966"}}, "geometry": {"type": "Point", "coordinates": [-37.419692438555096, -0.020588160352568576]}}, {"type": "Feature", "properties": {"norad_id": 54742, "name": "GALAXY 36 (G-36)", "group": "intelsat", "lat": -0.006218936659398635, "lon": -33.365496864017, "alt_km": 35785.25524731654, "timestamp": "2025-12-06T22:38:42.402962+00:00", "meta": {"OBJECT_NAME": "GALAXY 36 (G-36)", "OBJECT_ID": "2022-170B", "EPOCH": "2025-12-06T11:01:48.117216", "MEAN_MOTION": 1.00269622, "ECCENTRICITY": 6.487e-05, "INCLINATION": 0.013, "RA_OF_ASC_NODE": 335.9806, "ARG_OF_PERICENTER": 292.9746, "MEAN_ANOMALY": 242.9837, "EPHEMERIS_TYPE": 0, "CLASSIFICATION_TYPE": "U", "NORAD_CAT_ID": 54742, "ELEMENT_SET_NO": 999, "REV_AT_EPOCH": 1084, "BSTAR": 0, "MEAN_MOTION_DOT": 0, "MEAN_MOTION_DDOT": 0}, "tle": {"line1": "1 54742U 22170B   25340.45958469  .00000000  00000+0  00000+0 0  9996", "line2": "2 54742   0.0130 335.9806 0000648 292.9746 242.9837  1.00269622 10845"}}, "geometry": {"type": "Point", "coordinates": [-33.365496864017, -0.006218936659398635]}}, {"type": "Feature", "properties": {"norad_id": 57493, "name": "GALAXY 37 (G-37)", "group": "intelsat", "lat": -0.02818376626000936, "lon": -71.3418049327892, "alt_km": 35777.48391096933, "timestamp": "2025-12-06T22:38:42.402974+00:00", "meta": {"OBJECT_NAME": "GALAXY 37 (G-37)", "OBJECT_ID": "2023-112A", "EPOCH": "2025-12-06T13:08:15.504288", "MEAN_MOTION": 1.00270454, "ECCENTRICITY": 0.00024098, "INCLINATION": 0.0116, "RA_OF_ASC_NODE": 340.5945, "ARG_OF_PERICENTER": 279.2947, "MEAN_ANOMALY": 245.765, "EPHEMERIS_TYPE": 0, "CLASSIFICATION_TYPE": "U", "NORAD_CAT_ID": 57493, "ELEMENT_SET_NO": 999, "REV_AT_EPOCH": 861, "BSTAR": 0, "MEAN_MOTION_DOT": 5.5e-07, "MEAN_MOTION_DDOT": 0}, "tle": {"line1": "1 57493U 23112A   25340.54740167  .00000055  00000+0  00000+0 0  9993", "line2": "2 57493   0.0116 340.5945 0002409 279.2947 245.7650  1.00270454  8610"}}, "geometry": {"type": "Point", "coordinates": [-71.3418049327892, -0.02818376626000936]}}]}